     2.10           GLONASS NAV DATA                        RINEX VERSION / TYPE
SPIDER V4,0,0,3554                      2015 03 18 01:03    PGM / RUN BY / DATE 
  2015     2    18   9.313225746155e-010                    CORR TO SYSTEM TIME 
    16                                                      LEAP SECONDS        
                                                            END OF HEADER       
12 15 02 18 10 45  0.0-5.023553967476D-06 1.818989403546D-12 3.819000000000D+04
    2.250380175781D+04 1.493239402771D+00 7.450580596924D-09 0.000000000000D+00
    4.225602050781D+03 4.712333679199D-01 1.862645149231D-09-1.000000000000D+00
   -1.142765722656D+04 3.108111381531D+00-0.000000000000D+00 0.000000000000D+00
 1 15 02 18 11 15  0.0-1.561185345054D-04 0.000000000000D+00 3.960000000000D+04
    1.214884765625D+04 7.745122909546D-01 9.313225746155D-10 0.000000000000D+00
    4.867569335938D+03 2.895984649658D+00-0.000000000000D+00 1.000000000000D+00
    2.189237548828D+04-1.071777343750D+00-3.725290298462D-09 0.000000000000D+00
 8 15 02 18 11 15  0.0-2.631358802319D-05 0.000000000000D+00 3.960000000000D+04
    1.040620263672D+04 4.913501739502D-01 2.793967723846D-09 0.000000000000D+00
    2.065001464844D+04 1.398344039917D+00-1.862645149231D-09 6.000000000000D+00
    1.083447314453D+04-3.148000717163D+00-1.862645149231D-09 0.000000000000D+00
10 15 02 18 11 15  0.0 8.407048881054D-06 0.000000000000D+00 3.960000000000D+04
    2.424526855469D+03-2.971038818359D+00-0.000000000000D+00 0.000000000000D+00
    1.135036279297D+04-9.455823898315D-01-9.313225746155D-10-7.000000000000D+00
    2.270552734375D+04 7.831420898438D-01-2.793967723846D-09 0.000000000000D+00
11 15 02 18 11 15  0.0 1.263804733753D-06 0.000000000000D+00 3.960000000000D+04
    1.902453710938D+04-1.596657752991D+00 3.725290298462D-09 0.000000000000D+00
    1.144110937500D+04-6.485967636108D-01-0.000000000000D+00 0.000000000000D+00
    1.247922656250D+04 3.036763191223D+00-3.725290298462D-09 0.000000000000D+00
12 15 02 18 11 15  0.0-5.018897354603D-06 1.818989403546D-12 3.960000000000D+04
    2.456709863281D+04 7.681140899658D-01 7.450580596924D-09 0.000000000000D+00
    4.641784179688D+03 2.071189880371D-02 9.313225746155D-10-1.000000000000D+00
   -5.467094726563D+03 3.472135543823D+00-9.313225746155D-10 0.000000000000D+00
24 15 02 18 11 15  0.0-1.213243231177D-04-0.000000000000D+00 3.960000000000D+04
    1.905218261719D+04-3.010129928589D-01 3.725290298462D-09 0.000000000000D+00
   -1.688070312500D+04 2.064514160156D-02 3.725290298462D-09 2.000000000000D+00
   -1.718550781250D+03-3.573382377625D+00-9.313225746155D-10 0.000000000000D+00
 1 15 02 18 11 45  0.0-1.561203971505D-04 0.000000000000D+00 4.140000000000D+04
    1.380979443359D+04 1.040194511414D+00 1.862645149231D-09 0.000000000000D+00
    9.674696289063D+03 2.406602859497D+00-9.313225746155D-10 1.000000000000D+00
    1.914179541016D+04-1.964539527893D+00-3.725290298462D-09 0.000000000000D+00
 8 15 02 18 11 45  0.0-2.631265670061D-05 0.000000000000D+00 4.140000000000D+04
    1.123223095703D+04 3.845710754395D-01 2.793967723846D-09 0.000000000000D+00
    2.240967626953D+04 5.514822006226D-01-2.793967723846D-09 6.000000000000D+00
    4.823413574219D+03-3.487765312195D+00-9.313225746155D-10 0.000000000000D+00
11 15 02 18 11 45  0.0 1.264736056328D-06 0.000000000000D+00 4.140000000000D+04
    1.545783935547D+04-2.339376449585D+00 1.862645149231D-09 0.000000000000D+00
    1.037538525391D+04-4.968290328979D-01-9.313225746155D-10 0.000000000000D+00
    1.738983349609D+04 2.384003639221D+00-3.725290298462D-09 0.000000000000D+00
12 15 02 18 11 45  0.0-5.014240741730D-06 1.818989403546D-12 4.140000000000D+04
    2.518596875000D+04-9.464263916016D-02 7.450580596924D-09 0.000000000000D+00
    4.425952636719D+03-2.214775085449D-01-0.000000000000D+00-1.000000000000D+00
    9.121035156250D+02 3.570281028748D+00-1.862645149231D-09 0.000000000000D+00
24 15 02 18 11 45  0.0-1.213252544403D-04-0.000000000000D+00 4.140000000000D+04
    1.800056347656D+04-8.301620483398D-01 5.587935447693D-09 0.000000000000D+00
   -1.621887792969D+04 7.341642379761D-01 2.793967723846D-09 2.000000000000D+00
   -8.001184570313D+03-3.362037658691D+00-0.000000000000D+00 0.000000000000D+00
 2 15 02 18 11 45  0.0 1.191571354866D-04 1.818989403546D-12 4.182000000000D+04
    7.982556152344D+03 1.096932411194D+00 0.000000000000D+00 0.000000000000D+00
   -8.889120605469D+03 2.880556106567D+00 9.313225746155D-10-4.000000000000D+00
    2.256960498047D+04 7.446041107178D-01-3.725290298462D-09 0.000000000000D+00
17 15 02 18 11 45  0.0 1.494064927101D-04 9.094947017729D-13 4.203000000000D+04
    1.068576513672D+04 7.655458450317D-01 1.862645149231D-09 0.000000000000D+00
   -2.070034863281D+04-1.206295967102D+00 2.793967723846D-09 4.000000000000D+00
    1.038432080078D+04-3.204991340637D+00-1.862645149231D-09 0.000000000000D+00
17 15 02 18 12 15  0.0 1.494092866778D-04 9.094947017729D-13 4.320000000000D+04
    1.148760302734D+04 1.476240158081D-01 3.725290298462D-09 0.000000000000D+00
   -2.235421093750D+04-5.947217941284D-01 2.793967723846D-09 4.000000000000D+00
    4.288170898438D+03-3.524540901184D+00-9.313225746155D-10 0.000000000000D+00
 1 15 02 18 12 15  0.0-1.561194658279D-04 0.000000000000D+00 4.320000000000D+04
    1.576269921875D+04 1.089053153992D+00 1.862645149231D-09 0.000000000000D+00
    1.341843603516D+04 1.729948997498D+00-1.862645149231D-09 1.000000000000D+00
    1.491151318359D+04-2.705234527588D+00-2.793967723846D-09 0.000000000000D+00
 8 15 02 18 12 15  0.0-2.631265670061D-05 0.000000000000D+00 4.320000000000D+04
    1.164333544922D+04 3.376388549805D-02 1.862645149231D-09 0.000000000000D+00
    2.265101171875D+04-2.694988250732D-01-3.725290298462D-09 6.000000000000D+00
   -1.559736328125D+03-3.558649063110D+00-0.000000000000D+00 0.000000000000D+00
11 15 02 18 12 15  0.0 1.264736056328D-06 0.000000000000D+00 4.320000000000D+04
    1.072924267578D+04-2.872392654419D+00 0.000000000000D+00 0.000000000000D+00
    9.772806152344D+03-1.458044052124D-01-9.313225746155D-10 0.000000000000D+00
    2.095091162109D+04 1.547174453735D+00-2.793967723846D-09 0.000000000000D+00
12 15 02 18 12 15  0.0-5.010515451431D-06 1.818989403546D-12 4.320000000000D+04
    2.421011376953D+04-9.843301773071D-01 5.587935447693D-09 0.000000000000D+00
    3.992038574219D+03-2.192249298096D-01-1.862645149231D-09-1.000000000000D+00
    7.221338867188D+03 3.394816398621D+00-2.793967723846D-09 0.000000000000D+00
 2 15 02 18 12 15  0.0 1.191617920995D-04 1.818989403546D-12 4.320000000000D+04
    1.036983349609D+04 1.536213874817D+00 9.313225746155D-10 0.000000000000D+00
   -3.783950195313D+03 2.744023323059D+00 0.000000000000D+00-4.000000000000D+00
    2.302308837891D+04-2.440719604492D-01-3.725290298462D-09 0.000000000000D+00
13 15 02 18 12 15  0.0-4.723025485873D-04-9.094947017729D-13 4.365000000000D+04
    2.269601757813D+04 1.475041389465D+00 7.450580596924D-09 0.000000000000D+00
   -4.485905273438D+03-1.656465530396D-01-0.000000000000D+00-2.000000000000D+00
   -1.075589599609D+04 3.186648368835D+00-0.000000000000D+00 0.000000000000D+00
 1 15 02 18 12 45  0.0-1.561185345054D-04 0.000000000000D+00 4.500000000000D+04
    1.757615087891D+04 8.823528289795D-01 1.862645149231D-09 0.000000000000D+00
    1.585201269531D+04 9.694499969482D-01-3.725290298462D-09 1.000000000000D+00
    9.528805664063D+03-3.236719131470D+00-1.862645149231D-09 0.000000000000D+00
11 15 02 18 12 45  0.0 1.265667378902D-06 0.000000000000D+00 4.500000000000D+04
    5.287848632813D+03-3.122496604919D+00-1.862645149231D-09 0.000000000000D+00
    9.918636718750D+03 3.181066513062D-01-9.313225746155D-10 0.000000000000D+00
    2.288834082031D+04 5.917730331421D-01-2.793967723846D-09 0.000000000000D+00
12 15 02 18 12 45  0.0-5.005858838558D-06 1.818989403546D-12 4.500000000000D+04
    2.169621435547D+04-1.784727096558D+00 3.725290298462D-09 0.000000000000D+00
    3.779228515625D+03 1.903438568115D-02-1.862645149231D-09-1.000000000000D+00
    1.297651123047D+04 2.958462715149D+00-3.725290298462D-09 0.000000000000D+00
13 15 02 18 12 45  0.0-4.723053425550D-04-9.094947017729D-13 4.500000000000D+04
    2.458774804688D+04 6.109724044800D-01 7.450580596924D-09 0.000000000000D+00
   -4.926785644531D+03-2.838001251221D-01-1.862645149231D-09-2.000000000000D+00
   -4.678339355469D+03 3.522381782532D+00-9.313225746155D-10 0.000000000000D+00
 2 15 02 18 12 45  0.0 1.191655173898D-04 1.818989403546D-12 4.500000000000D+04
    1.341437011719D+04 1.812083244324D+00 9.313225746155D-10 0.000000000000D+00
    8.325610351563D+02 2.347474098206D+00-9.313225746155D-10-4.000000000000D+00
    2.170190429688D+04-1.214524269104D+00-3.725290298462D-09 0.000000000000D+00
 1 15 02 18 13 15  0.0-1.561176031828D-04 0.000000000000D+00 4.680000000000D+04
    1.878811865234D+04 4.253902435303D-01 9.313225746155D-10 0.000000000000D+00
    1.692605517578D+04 2.379770278931D-01-3.725290298462D-09 1.000000000000D+00
    3.409817871094D+03-3.518033027649D+00-9.313225746155D-10 0.000000000000D+00
11 15 02 18 13 15  0.0 1.266598701477D-06 0.000000000000D+00 4.680000000000D+04
   -3.229018554688D+02-3.059474945068D+00-2.793967723846D-09 0.000000000000D+00
    1.092167480469D+04 7.880954742432D-01-0.000000000000D+00 0.000000000000D+00
    2.305468505859D+04-4.078807830811D-01-1.862645149231D-09 0.000000000000D+00
12 15 02 18 13 15  0.0-5.003064870834D-06 9.094947017729D-13 4.680000000000D+04
    1.790133154297D+04-2.392388343811D+00 9.313225746155D-10 0.000000000000D+00
    4.171913574219D+03 4.416961669922D-01-1.862645149231D-09-1.000000000000D+00
    1.773437353516D+04 2.293650627136D+00-3.725290298462D-09 0.000000000000D+00
